[{"OBJECT_NAME":"ONEWEB-0594","OBJECT_ID":"2022-166U","EPOCH":"2025-10-26T23:35:33.264096","MEAN_MOTION":13.21826147,"ECCENTRICITY":0.00019196,"INCLINATION":87.917,"RA_OF_ASC_NODE":290.5255,"ARG_OF_PERICENTER":89.674,"MEAN_ANOMALY":270.4614,"EPHEMERIS_TYPE":0,"CLASSIFICATION_TYPE":"U","NORAD_CAT_ID":54660,"ELEMENT_SET_NO":999,"REV_AT_EPOCH":14075,"BSTAR":0.0002925558,"MEAN_MOTION_DOT":1.34e-6,"MEAN_MOTION_DDOT":0},{"OBJECT_NAME":"ONEWEB-0595","OBJECT_ID":"2022-166V","EPOCH":"2025-10-26T23:02:20.136192","MEAN_MOTION":13.21824383,"ECCENTRICITY":0.00020618,"INCLINATION":87.9166,"RA_OF_ASC_NODE":290.5041,"ARG_OF_PERICENTER":87.6332,"MEAN_ANOMALY":272.5038,"EPHEMERIS_TYPE":0,"CLASSIFICATION_TYPE":"U","NORAD_CAT_ID":54661,"ELEMENT_SET_NO":999,"REV_AT_EPOCH":14072,"BSTAR":2.586276e-5,"MEAN_MOTION_DOT":2.4e-7,"MEAN_MOTION_DDOT":0},{"OBJECT_NAME":"ONEWEB-0596","OBJECT_ID":"2022-166W","EPOCH":"2025-10-26T22:24:27.664992","MEAN_MOTION":13.21826227,"ECCENTRICITY":0.0001937,"INCLINATION":87.9168,"RA_OF_ASC_NODE":290.5254,"ARG_OF_PERICENTER":86.0471,"MEAN_ANOMALY":274.0884,"EPHEMERIS_TYPE":0,"CLASSIFICATION_TYPE":"U","NORAD_CAT_ID":54662,"ELEMENT_SET_NO":999,"REV_AT_EPOCH":14072,"BSTAR":0.00024489857,"MEAN_MOTION_DOT":1.14e-6,"MEAN_MOTION_DDOT":0},{"OBJECT_NAME":"ONEWEB-0597","OBJECT_ID":"2022-166X","EPOCH":"2025-10-26T23:47:24.260064","MEAN_MOTION":13.21826428,"ECCENTRICITY":0.0001774,"INCLINATION":87.9169,"RA_OF_ASC_NODE":290.5185,"ARG_OF_PERICENTER":87.1091,"MEAN_ANOMALY":273.0246,"EPHEMERIS_TYPE":0,"CLASSIFICATION_TYPE":"U","NORAD_CAT_ID":54663,"ELEMENT_SET_NO":999,"REV_AT_EPOCH":14073,"BSTAR":0.00017558219,"MEAN_MOTION_DOT":8.6e-7,"MEAN_MOTION_DDOT":0},{"OBJECT_NAME":"ONEWEB-0600","OBJECT_ID":"2022-166Y","EPOCH":"2025-10-26T21:32:19.629888","MEAN_MOTION":13.21825026,"ECCENTRICITY":0.00017477,"INCLINATION":87.9168,"RA_OF_ASC_NODE":290.5278,"ARG_OF_PERICENTER":90.7619,"MEAN_ANOMALY":269.3715,"EPHEMERIS_TYPE":0,"CLASSIFICATION_TYPE":"U","NORAD_CAT_ID":54664,"ELEMENT_SET_NO":999,"REV_AT_EPOCH":14069,"BSTAR":-0.00011851452,"MEAN_MOTION_DOT":-3.6e-7,"MEAN_MOTION_DDOT":0},{"OBJECT_NAME":"ONEWEB-0601","OBJECT_ID":"2022-166Z","EPOCH":"2025-10-26T21:20:28.848192","MEAN_MOTION":13.21825487,"ECCENTRICITY":0.00016044,"INCLINATION":87.9168,"RA_OF_ASC_NODE":290.5475,"ARG_OF_PERICENTER":83.2091,"MEAN_ANOMALY":276.9225,"EPHEMERIS_TYPE":0,"CLASSIFICATION_TYPE":"U","NORAD_CAT_ID":54665,"ELEMENT_SET_NO":999,"REV_AT_EPOCH":14088,"BSTAR":-0.00018748014,"MEAN_MOTION_DOT":-6.4e-7,"MEAN_MOTION_DDOT":0},{"OBJECT_NAME":"ONEWEB-0602","OBJECT_ID":"2022-166AA","EPOCH":"2025-10-26T22:18:29.745216","MEAN_MOTION":13.21824589,"ECCENTRICITY":0.00016663,"INCLINATION":87.917,"RA_OF_ASC_NODE":290.5427,"ARG_OF_PERICENTER":99.1331,"MEAN_ANOMALY":260.9991,"EPHEMERIS_TYPE":0,"CLASSIFICATION_TYPE":"U","NORAD_CAT_ID":54666,"ELEMENT_SET_NO":999,"REV_AT_EPOCH":14073,"BSTAR":0.00030075367,"MEAN_MOTION_DOT":1.37e-6,"MEAN_MOTION_DDOT":0},{"OBJECT_NAME":"ONEWEB-0603","OBJECT_ID":"2022-166AB","EPOCH":"2025-10-26T22:26:49.650432","MEAN_MOTION":13.21824951,"ECCENTRICITY":0.00017304,"INCLINATION":87.9177,"RA_OF_ASC_NODE":290.4773,"ARG_OF_PERICENTER":88.7767,"MEAN_ANOMALY":271.3565,"EPHEMERIS_TYPE":0,"CLASSIFICATION_TYPE":"U","NORAD_CAT_ID":54667,"ELEMENT_SET_NO":999,"REV_AT_EPOCH":14066,"BSTAR":0.00010061061,"MEAN_MOTION_DOT":5.5e-7,"MEAN_MOTION_DDOT":0},{"OBJECT_NAME":"ONEWEB-0604","OBJECT_ID":"2022-166AC","EPOCH":"2025-10-26T22:10:11.745120","MEAN_MOTION":13.21826546,"ECCENTRICITY":0.00016756,"INCLINATION":87.9168,"RA_OF_ASC_NODE":290.5032,"ARG_OF_PERICENTER":90.6528,"MEAN_ANOMALY":269.4798,"EPHEMERIS_TYPE":0,"CLASSIFICATION_TYPE":"U","NORAD_CAT_ID":54668,"ELEMENT_SET_NO":999,"REV_AT_EPOCH":14062,"BSTAR":0.00024065236,"MEAN_MOTION_DOT":1.12e-6,"MEAN_MOTION_DDOT":0},{"OBJECT_NAME":"ONEWEB-0605","OBJECT_ID":"2022-166AD","EPOCH":"2025-10-26T22:00:45.660096","MEAN_MOTION":13.21825013,"ECCENTRICITY":0.00015976,"INCLINATION":87.9168,"RA_OF_ASC_NODE":290.5334,"ARG_OF_PERICENTER":68.6799,"MEAN_ANOMALY":291.4505,"EPHEMERIS_TYPE":0,"CLASSIFICATION_TYPE":"U","NORAD_CAT_ID":54669,"ELEMENT_SET_NO":999,"REV_AT_EPOCH":14069,"BSTAR":0.00079124091,"MEAN_MOTION_DOT":3.4e-6,"MEAN_MOTION_DDOT":0},{"OBJECT_NAME":"ONEWEB-0606","OBJECT_ID":"2022-166AE","EPOCH":"2025-10-26T22:31:34.086144","MEAN_MOTION":13.21826113,"ECCENTRICITY":0.00020682,"INCLINATION":87.9169,"RA_OF_ASC_NODE":290.5393,"ARG_OF_PERICENTER":89.2259,"MEAN_ANOMALY":270.9112,"EPHEMERIS_TYPE":0,"CLASSIFICATION_TYPE":"U","NORAD_CAT_ID":54670,"ELEMENT_SET_NO":999,"REV_AT_EPOCH":14075,"BSTAR":0.00053799254,"MEAN_MOTION_DOT":2.35e-6,"MEAN_MOTION_DDOT":0},{"OBJECT_NAME":"ONEWEB-0607","OBJECT_ID":"2022-166AF","EPOCH":"2025-10-26T23:33:10.641024","MEAN_MOTION":13.21824812,"ECCENTRICITY":0.00016949,"INCLINATION":87.9169,"RA_OF_ASC_NODE":290.4949,"ARG_OF_PERICENTER":88.0804,"MEAN_ANOMALY":272.0524,"EPHEMERIS_TYPE":0,"CLASSIFICATION_TYPE":"U","NORAD_CAT_ID":54671,"ELEMENT_SET_NO":999,"REV_AT_EPOCH":14073,"BSTAR":0.00011050809,"MEAN_MOTION_DOT":5.9e-7,"MEAN_MOTION_DDOT":0},{"OBJECT_NAME":"ONEWEB-0608","OBJECT_ID":"2022-166AG","EPOCH":"2025-10-26T23:42:39.134880","MEAN_MOTION":13.21825859,"ECCENTRICITY":0.00014399,"INCLINATION":87.9173,"RA_OF_ASC_NODE":290.4778,"ARG_OF_PERICENTER":78.0032,"MEAN_ANOMALY":282.1263,"EPHEMERIS_TYPE":0,"CLASSIFICATION_TYPE":"U","NORAD_CAT_ID":54672,"ELEMENT_SET_NO":999,"REV_AT_EPOCH":14074,"BSTAR":0.00070951609,"MEAN_MOTION_DOT":3.06e-6,"MEAN_MOTION_DDOT":0},{"OBJECT_NAME":"ONEWEB-0610","OBJECT_ID":"2022-166AH","EPOCH":"2025-10-26T21:25:11.635392","MEAN_MOTION":13.21824313,"ECCENTRICITY":0.00013341,"INCLINATION":87.9167,"RA_OF_ASC_NODE":290.5336,"ARG_OF_PERICENTER":76.7789,"MEAN_ANOMALY":283.3494,"EPHEMERIS_TYPE":0,"CLASSIFICATION_TYPE":"U","NORAD_CAT_ID":54673,"ELEMENT_SET_NO":999,"REV_AT_EPOCH":14063,"BSTAR":-0.00022692449,"MEAN_MOTION_DOT":-8.1e-7,"MEAN_MOTION_DDOT":0},{"OBJECT_NAME":"ONEWEB-0611","OBJECT_ID":"2022-166AJ","EPOCH":"2025-10-26T23:04:42.106944","MEAN_MOTION":13.21828431,"ECCENTRICITY":0.00020862,"INCLINATION":87.9169,"RA_OF_ASC_NODE":290.5152,"ARG_OF_PERICENTER":92.2465,"MEAN_ANOMALY":267.8907,"EPHEMERIS_TYPE":0,"CLASSIFICATION_TYPE":"U","NORAD_CAT_ID":54674,"ELEMENT_SET_NO":999,"REV_AT_EPOCH":14063,"BSTAR":9.5773159e-5,"MEAN_MOTION_DOT":5.3e-7,"MEAN_MOTION_DDOT":0},{"OBJECT_NAME":"ONEWEB-0612","OBJECT_ID":"2022-166AK","EPOCH":"2025-10-26T23:23:41.239104","MEAN_MOTION":13.21825651,"ECCENTRICITY":0.00017338,"INCLINATION":87.917,"RA_OF_ASC_NODE":290.4914,"ARG_OF_PERICENTER":86.7491,"MEAN_ANOMALY":273.3841,"EPHEMERIS_TYPE":0,"CLASSIFICATION_TYPE":"U","NORAD_CAT_ID":54675,"ELEMENT_SET_NO":999,"REV_AT_EPOCH":14062,"BSTAR":2.0928955e-5,"MEAN_MOTION_DOT":2.2e-7,"MEAN_MOTION_DDOT":0}]
