ONEWEB-0594             
1 54660U 22166U   25299.98302389  .00000134  00000+0  29256-3 0  9991
2 54660  87.9170 290.5255 0001919  89.6740 270.4614 13.21826147140753
ONEWEB-0595             
1 54661U 22166V   25299.95995528  .00000024  00000+0  25863-4 0  9991
2 54661  87.9166 290.5041 0002061  87.6332 272.5038 13.21824383140726
ONEWEB-0596             
1 54662U 22166W   25299.93365353  .00000114  00000+0  24490-3 0  9991
2 54662  87.9168 290.5254 0001937  86.0471 274.0884 13.21826227140728
ONEWEB-0597             
1 54663U 22166X   25299.99125301  .00000086  00000+0  17558-3 0  9990
2 54663  87.9169 290.5185 0001774  87.1091 273.0246 13.21826428140737
ONEWEB-0600             
1 54664U 22166Y   25299.89744942 -.00000036  00000+0 -11851-3 0  9995
2 54664  87.9168 290.5278 0001747  90.7619 269.3715 13.21825026140693
ONEWEB-0601             
1 54665U 22166Z   25299.88922278 -.00000064  00000+0 -18748-3 0  9998
2 54665  87.9168 290.5475 0001604  83.2091 276.9225 13.21825487140888
ONEWEB-0602             
1 54666U 22166AA  25299.92951094  .00000137  00000+0  30075-3 0  9998
2 54666  87.9170 290.5427 0001666  99.1331 260.9991 13.21824589140739
ONEWEB-0603             
1 54667U 22166AB  25299.93529688  .00000055  00000+0  10061-3 0  9992
2 54667  87.9177 290.4773 0001730  88.7767 271.3565 13.21824951140667
ONEWEB-0604             
1 54668U 22166AC  25299.92374705  .00000112  00000+0  24065-3 0  9993
2 54668  87.9168 290.5032 0001675  90.6528 269.4798 13.21826546140626
ONEWEB-0605             
1 54669U 22166AD  25299.91719514  .00000340  00000+0  79124-3 0  9993
2 54669  87.9168 290.5334 0001597  68.6799 291.4505 13.21825013140696
ONEWEB-0606             
1 54670U 22166AE  25299.93858896  .00000235  00000+0  53799-3 0  9997
2 54670  87.9169 290.5393 0002068  89.2259 270.9112 13.21826113140753
ONEWEB-0607             
1 54671U 22166AF  25299.98137316  .00000059  00000+0  11051-3 0  9999
2 54671  87.9169 290.4949 0001694  88.0804 272.0524 13.21824812140739
ONEWEB-0608             
1 54672U 22166AG  25299.98795295  .00000306  00000+0  70952-3 0  9996
2 54672  87.9173 290.4778 0001439  78.0032 282.1263 13.21825859140749
ONEWEB-0610             
1 54673U 22166AH  25299.89249578 -.00000081  00000+0 -22692-3 0  9995
2 54673  87.9167 290.5336 0001334  76.7789 283.3494 13.21824313140633
ONEWEB-0611             
1 54674U 22166AJ  25299.96159846  .00000053  00000+0  95773-4 0  9990
2 54674  87.9169 290.5152 0002086  92.2465 267.8907 13.21828431140632
ONEWEB-0612             
1 54675U 22166AK  25299.97478286  .00000022  00000+0  20929-4 0  9991
2 54675  87.9170 290.4914 0001733  86.7491 273.3841 13.21825651140624
